{
  "type": "FeatureCollection",
  "name": "dammam_urban_core_provisional",
  "crs": {
    "type": "name",
    "properties": {"name": "urn:ogc:def:crs:OGC:1.3:CRS84"}
  },
  "features": [
    {
      "type": "Feature",
      "properties": {
        "name": "Dammam urban-core POC",
        "status": "PROVISIONAL - MANUAL REVIEW REQUIRED",
        "purpose": "ASF Sentinel-1 acquisition search"
      },
      "geometry": {
        "type": "Polygon",
        "coordinates": [[
          [49.82, 26.30],
          [50.22, 26.30],
          [50.22, 26.55],
          [49.82, 26.55],
          [49.82, 26.30]
        ]]
      }
    }
  ]
}

